<?xml version='1.0' encoding='UTF-8'?>
<Document>
  <name>D:\Drone_Data\Drone_Data\DATFile\FLY008.DAT</name>
  <description>KML File For FLY008.DAT Generated By PAC.</description>
  <Style id="1443882953">
    <LineStyle>
      <color>ff0822c8</color>
      <width>8</width>
    </LineStyle>
  </Style>
  <Style id="startcolor">
    <LineStyle>
      <color>ff000000</color>
      <width>2</width>
    </LineStyle>
  </Style>
  <Style id="endcolor">
    <LineStyle>
      <color>ff000000</color>
      <width>2</width>
    </LineStyle>
  </Style>
  <Placemark>
    <name>KML File For FLY008.DAT Generated By PAC.</name>
    <description>Flight Takeoff Point For for KML File For FLY008.DAT Generated By PAC.</description>
    <styleUrl>#startcolor</styleUrl>
    <LineString>
      <extrude>0</extrude>
      <tessellate>0</tessellate>
      <altitudeMode>clampToGround</altitudeMode>
      <coordinates></coordinates>
    </LineString>
  </Placemark>
  <Placemark>
    <name>KML File For FLY008.DAT Generated By PAC.</name>
    <description>Flight Termination Point For for KML File For FLY008.DAT Generated By PAC.</description>
    <styleUrl>#endcolor</styleUrl>
    <LineString>
      <extrude>0</extrude>
      <tessellate>0</tessellate>
      <altitudeMode>clampToGround</altitudeMode>
      <coordinates></coordinates>
    </LineString>
  </Placemark>
  <Placemark>
    <name>KML File For FLY008.DAT Generated By PAC.</name>
    <description><![CDATA[Flight Path for KML File For FLY008.DAT Generated By PAC.]]></description>
    <styleUrl>#1443882953</styleUrl>
    <LineString>
      <extrude>0</extrude>
      <tessellate>0</tessellate>
      <altitudeMode>absolute</altitudeMode>
      <coordinates></coordinates>
    </LineString>
  </Placemark>
</Document>
