<?xml version='1.0' encoding='UTF-8'?>
<Document>
  <name>E:\DJI_LUA\Drone_Data - V1\DATFile\FLY021.DAT</name>
  <description>KML File For FLY021.DAT Generated By PAC.</description>
  <Style id="236850624">
    <LineStyle>
      <color>ff0822c8</color>
      <width>8</width>
    </LineStyle>
  </Style>
  <Style id="startcolor">
    <LineStyle>
      <color>ff000000</color>
      <width>2</width>
    </LineStyle>
  </Style>
  <Style id="endcolor">
    <LineStyle>
      <color>ff000000</color>
      <width>2</width>
    </LineStyle>
  </Style>
  <Placemark>
    <name>KML File For FLY021.DAT Generated By PAC.</name>
    <description>Flight Takeoff Point For for KML File For FLY021.DAT Generated By PAC.</description>
    <styleUrl>#startcolor</styleUrl>
    <LineString>
      <extrude>0</extrude>
      <tessellate>0</tessellate>
      <altitudeMode>clampToGround</altitudeMode>
      <coordinates>105.8053172,21.0395599,26.35 105.8053172,21.0391599,26.35 105.8057172,21.0391599,26.35 105.8057172,21.0395599,26.35 105.8053172,21.0395599,26.35</coordinates>
    </LineString>
  </Placemark>
  <Placemark>
    <name>KML File For FLY021.DAT Generated By PAC.</name>
    <description>Flight Termination Point For for KML File For FLY021.DAT Generated By PAC.</description>
    <styleUrl>#endcolor</styleUrl>
    <LineString>
      <extrude>0</extrude>
      <tessellate>0</tessellate>
      <altitudeMode>clampToGround</altitudeMode>
      <coordinates>105.8053291,21.0395889,22.47 105.8053291,21.0391889,22.47 105.8057291,21.0391889,22.47 105.8057291,21.0395889,22.47 105.8053291,21.0395889,22.47</coordinates>
    </LineString>
  </Placemark>
  <Placemark>
    <name>KML File For FLY021.DAT Generated By PAC.</name>
    <description><![CDATA[Flight Path for KML File For FLY021.DAT Generated By PAC.]]></description>
    <styleUrl>#236850624</styleUrl>
    <LineString>
      <extrude>0</extrude>
      <tessellate>0</tessellate>
      <altitudeMode>absolute</altitudeMode>
      <coordinates>105.8055172,21.0393599,26.35 105.8055318,21.0393715,25.27 105.8055525,21.0393827,30.07 105.8055521,21.0393841,29.07 105.8055494,21.0393877,28.63 105.8055448,21.0394120,33.78 105.8055128,21.0394139,32.91 105.8054072,21.0394179,34.04 105.8054671,21.0394306,36.37 105.8055600,21.0394473,29.90 105.8055598,21.0394451,30.30 105.8055611,21.0394667,30.97 105.8055607,21.0394668,30.97 105.8055336,21.0394161,34.45 105.8055372,21.0394074,27.98 105.8055270,21.0393934,22.14 105.8055291,21.0393889,22.47</coordinates>
    </LineString>
  </Placemark>
</Document>
