<?xml version='1.0' encoding='UTF-8'?>
<kml xmlns="http://www.opengis.net/kml/2.2">
<Document>
  <name>/media/INTERNAL/UAVLogical-MavicPro-2026-01-24T15-25-21/FLY021.DAT</name>
  <description>KML File For FLY021.DAT Generated By CFIDV3.</description>
  <Style id="957602374">
    <LineStyle>
      <color>FF0000F9</color>
      <width>8</width>
    </LineStyle>
  </Style>
  <Style id="startcolor">
    <LineStyle>
      <color>ff000000</color>
      <width>2</width>
    </LineStyle>
  </Style>
  <Style id="endcolor">
    <LineStyle>
      <color>ff000000</color>
      <width>2</width>
    </LineStyle>
  </Style>
  <Placemark>
    <name>KML File For FLY021.DAT Generated By CFIDV3.</name>
    <description>Flight Takeoff Point For for KML File For FLY021.DAT Generated By CFIDV3.</description>
    <styleUrl>#startcolor</styleUrl>
    <LineString>
      <extrude>0</extrude>
      <tessellate>0</tessellate>
      <altitudeMode>clampToGround</altitudeMode>
      <coordinates>105.8056345,21.0394784,26.15 105.8054345,21.0394784,26.15 105.8054345,21.0392784,26.15 105.8056345,21.0394784,26.15</coordinates>
    </LineString>
  </Placemark>
  <Placemark>
    <name>KML File For FLY021.DAT Generated By CFIDV3.</name>
    <description>Flight Termination Point For for KML File For FLY021.DAT Generated By CFIDV3.</description>
    <styleUrl>#endcolor</styleUrl>
    <LineString>
      <extrude>0</extrude>
      <tessellate>0</tessellate>
      <altitudeMode>clampToGround</altitudeMode>
      <coordinates>105.8054307,21.0392848,23.68 105.8054307,21.0394848,23.68 105.8056307,21.0394848,23.68 105.8056307,21.0392848,23.68 105.8054307,21.0392848,23.68</coordinates>
    </LineString>
  </Placemark>
  <Placemark>
    <name>KML File For FLY021.DAT Generated By CFIDV3.</name>
    <description><![CDATA[Flight Path for KML File For FLY021.DAT Generated By CFIDV3.; MGRS FIRST POINT:48Q WJ 83698 26717 MGRS LAST POINT:48Q WJ 83697 26717]]></description>
    <styleUrl>#957602374</styleUrl>
    <LineString>
      <extrude>0</extrude>
      <tessellate>0</tessellate>
      <altitudeMode>absolute</altitudeMode>
      <coordinates>105.8055345,21.0393784,26.15 105.805538,21.0393741,26.12 105.8055395,21.0393758,26.14 105.8055428,21.0393752,26.18 105.8055441,21.0393774,26.17 105.8055423,21.0393819,26.04 105.8055409,21.0393826,26.04 105.8055393,21.039383,26.04 105.8055381,21.0393839,26.1 105.8055373,21.0393842,26.12 105.8055386,21.0393825,26.03 105.8055397,21.03938,26.02 105.8055406,21.0393776,26 105.8055397,21.0393767,25.97 105.8055383,21.0393731,26.13 105.8055393,21.039371,26.22 105.805541,21.0393692,26.03 105.8055423,21.0393682,25.95 105.8055435,21.0393662,25.88 105.805545,21.0393634,25.85 105.8055436,21.0393636,25.71 105.8055422,21.0393594,25.32 105.8055486,21.039346,25.42 105.8055495,21.0393428,25.52 105.8055525,21.0393385,25.29 105.8055542,21.0393379,25.27 105.8055557,21.0393381,25.24 105.8055572,21.0393394,25.07 105.8055598,21.0393411,24.7 105.8055583,21.0393422,24.46 105.8055569,21.0393417,24.32 105.8055554,21.039339,23.95 105.805554,21.03934,24.01 105.8055479,21.0393445,23.95 105.8055445,21.039347,24 105.8055422,21.0393491,24.06 105.8055395,21.0393502,24.12 105.8055368,21.0393504,24.21 105.8055337,21.0393542,24.54 105.8055325,21.0393563,24.72 105.8055317,21.0393559,24.74 105.8055307,21.0393554,24.73 105.8055295,21.0393558,24.74 105.8055279,21.0393542,24.62 105.805526,21.0393514,24.53 105.8055249,21.039351,24.55 105.805524,21.039351,24.66 105.8055198,21.0393571,25.46 105.8055185,21.0393583,25.63 105.8055115,21.0393618,26.1 105.8055137,21.0393593,26.22 105.8055158,21.0393588,26.25 105.8055172,21.0393599,26.35 105.8055161,21.0393638,26.41 105.8055153,21.0393663,26.57 105.8055167,21.0393685,26.6 105.8055186,21.0393689,26.05 105.8055204,21.0393697,25.91 105.8055224,21.0393701,25.77 105.8055301,21.0393711,25.31 105.8055318,21.0393715,25.27 105.8055332,21.0393713,25.06 105.8055344,21.0393713,24.94 105.8055358,21.0393708,24.85 105.8055377,21.0393715,24.73 105.805539,21.0393726,24.78 105.8055411,21.039373,24.69 105.8055428,21.0393739,24.64 105.8055519,21.0393831,24.86 105.8055532,21.0393847,24.92 105.8055559,21.0393856,24.65 105.8055577,21.0393862,24.7 105.8055592,21.0393871,24.69 105.8055636,21.0393867,24.64 105.805565,21.0393872,24.65 105.8055667,21.0393872,24.59 105.8055686,21.0393868,24.44 105.8055702,21.0393862,24.46 105.8055715,21.0393867,24.28 105.8055756,21.0393841,24.21 105.8055769,21.0393831,24.08 105.8055798,21.0393793,23.8 105.8055809,21.0393762,23.4 105.8055801,21.0393753,23.62 105.8055781,21.0393771,23.8 105.8055764,21.0393793,23.94 105.805578,21.0393753,23.82 105.8055766,21.0393773,26.3 105.8055758,21.0393768,26.28 105.8055741,21.0393765,26.3 105.805573,21.0393767,26.44 105.8055721,21.039377,26.57 105.8055709,21.0393774,26.76 105.8055701,21.0393775,26.85 105.8055688,21.039378,26.99 105.8055672,21.0393783,27.2 105.8055664,21.0393786,27.29 105.8055656,21.0393788,27.38 105.8055634,21.0393799,27.64 105.8055616,21.0393817,27.84 105.8055605,21.0393826,27.96 105.805558,21.039386,28.22 105.8055566,21.0393881,28.45 105.805555,21.0393899,28.73 105.8055538,21.0393905,29.03 105.8055528,21.0393919,30.01 105.805552,21.0393925,30.31 105.8055497,21.0393951,30.8 105.8055505,21.0393942,31.03 105.8055516,21.0393931,30.83 105.8055524,21.0393919,30.69 105.8055512,21.0393895,30.48 105.805552,21.0393863,30.39 105.8055532,21.0393838,30.29 105.8055524,21.0393826,29.98 105.8055516,21.0393847,29 105.8055502,21.0393871,28.72 105.8055494,21.0393877,28.63 105.8055486,21.0393887,28.58 105.8055442,21.0393926,28.35 105.8055424,21.039394,28.38 105.8055406,21.0393949,28.34 105.8055389,21.0393964,28.38 105.8055378,21.0393974,28.27 105.805537,21.0393979,28.27 105.8055384,21.0393996,32.96 105.8055399,21.0393992,33.05 105.8055407,21.0393992,33.31 105.8055421,21.0394081,33.14 105.8055429,21.0394099,33.25 105.805545,21.0394118,33.48 105.8055442,21.0394123,33.85 105.805543,21.0394124,33.51 105.8055422,21.0394102,32.56 105.8055387,21.0394112,32.54 105.8055346,21.0394133,32.59 105.8055325,21.0394142,32.62 105.8055303,21.0394151,32.62 105.8055274,21.0394155,32.86 105.8055247,21.0394161,32.96 105.8055221,21.0394175,32.93 105.8055196,21.0394186,32.96 105.8055182,21.0394186,32.97 105.8055174,21.0394192,33.02 105.8055128,21.0394139,32.91 105.8055116,21.0394119,32.81 105.8055084,21.0394065,32.45 105.8055093,21.039407,37.2 105.8055113,21.0394065,37.62 105.8055124,21.0394069,37.59 105.8055135,21.0394073,37.54 105.8055144,21.0394087,37.2 105.8055153,21.0394085,37.28 105.8055163,21.039416,36.57 105.8055175,21.0394206,36.16 105.8055184,21.0394239,36.08 105.8055196,21.0394277,35.75 105.8055204,21.0394291,37.23 105.8055212,21.0394295,35.24 105.8055176,21.0394304,32.46 105.8055101,21.0394299,32.37 105.805491,21.0394285,32.28 105.8054848,21.0394279,32.28 105.8054636,21.0394261,32.26 105.8054331,21.0394232,32.2 105.8054087,21.0394205,32.3 105.8054078,21.0394202,32.31 105.8054069,21.0394197,32.32 105.8054077,21.0394164,36.07 105.8054085,21.0394157,36.31 105.8054093,21.0394141,36.35 105.805411,21.0394138,36.41 105.8054158,21.0394152,36.37 105.8054197,21.0394165,36.38 105.8054585,21.0394281,36.38 105.8054671,21.0394306,36.37 105.8055061,21.0394402,35.53 105.8055071,21.0394397,34.34 105.8055085,21.0394391,32.49 105.8055173,21.0394406,29.29 105.8055205,21.0394415,29.32 105.805524,21.0394423,29.36 105.8055315,21.0394438,29.53 105.8055356,21.0394447,29.53 105.8055438,21.0394462,29.59 105.8055478,21.0394473,29.59 105.8055515,21.0394481,29.61 105.8055544,21.0394485,29.66 105.8055562,21.0394486,29.71 105.8055572,21.0394486,29.77 105.8055586,21.0394484,29.83 105.80556,21.0394473,29.9 105.8055581,21.0394444,30.65 105.805559,21.0394564,30.76 105.80556,21.0394619,30.88 105.8055614,21.0394669,30.93 105.8055602,21.039467,30.98 105.8055589,21.0394681,30.94 105.8055533,21.0394735,31.15 105.8055522,21.0394741,31.33 105.8055508,21.039474,31.48 105.80555,21.0394704,31.79 105.8055513,21.0394639,31.95 105.8055523,21.0394579,32.05 105.8055535,21.0394506,32.05 105.8055544,21.0394459,32.06 105.8055552,21.0394432,31.99 105.8055561,21.0394449,31.75 105.8055539,21.0394638,31.8 105.8055547,21.0394697,38.54 105.8055556,21.0394702,38.53 105.8055564,21.03947,38.24 105.8055584,21.0394734,35.59 105.8055593,21.0394755,35.79 105.8055601,21.0394761,35.82 105.8055593,21.0394776,35.14 105.8055602,21.0394582,35.02 105.8055385,21.0394565,35.09 105.805533,21.0394578,35.16 105.8055338,21.0394151,34.42 105.8055348,21.0394138,33.09 105.8055359,21.0394126,30.34 105.805537,21.0394128,28.34 105.8055351,21.039407,27.13 105.8055338,21.0394099,25.61 105.8055329,21.0394108,25.17 105.8055299,21.0394106,25.4 105.8055286,21.0394105,25.41 105.8055273,21.0394107,25.39 105.8055265,21.0394106,25.35 105.8055257,21.0394117,25.14 105.8055249,21.039413,24.67 105.805524,21.0394129,24.56 105.8055231,21.0394121,24.58 105.8055222,21.0394085,24.59 105.8055235,21.0393998,23.97 105.8055245,21.0393974,22.89 105.8055253,21.0393964,22.46 105.8055261,21.0393955,22.27 105.8055269,21.0393935,22.15 105.8055278,21.0393923,22.17 105.8055286,21.039391,22.21 105.8055294,21.0393861,23.12 105.8055307,21.0393848,23.68</coordinates>
    </LineString>
  </Placemark>
</Document>
</kml>