<?xml version='1.0' encoding='UTF-8'?>
<Document>
  <name>E:\DJI_LUA\Drone_Data - V1\DATFile\FLY021.DAT</name>
  <description>KML File For FLY021.DAT Generated By PAC.</description>
  <Style id="236850624">
    <LineStyle>
      <color>ff0822c8</color>
      <width>8</width>
    </LineStyle>
  </Style>
  <Style id="startcolor">
    <LineStyle>
      <color>ff000000</color>
      <width>2</width>
    </LineStyle>
  </Style>
  <Style id="endcolor">
    <LineStyle>
      <color>ff000000</color>
      <width>2</width>
    </LineStyle>
  </Style>
  <Placemark>
    <name>KML File For FLY021.DAT Generated By PAC.</name>
    <description>Flight Takeoff Point For for KML File For FLY021.DAT Generated By PAC.</description>
    <styleUrl>#startcolor</styleUrl>
    <LineString>
      <extrude>0</extrude>
      <tessellate>0</tessellate>
      <altitudeMode>clampToGround</altitudeMode>
      <coordinates>105.8056336,21.0394779,26.09 105.8054336,21.0394779,26.09 105.8054336,21.0392779,26.09 105.8056336,21.0394779,26.09</coordinates>
    </LineString>
  </Placemark>
  <Placemark>
    <name>KML File For FLY021.DAT Generated By PAC.</name>
    <description>Flight Termination Point For for KML File For FLY021.DAT Generated By PAC.</description>
    <styleUrl>#endcolor</styleUrl>
    <LineString>
      <extrude>0</extrude>
      <tessellate>0</tessellate>
      <altitudeMode>clampToGround</altitudeMode>
      <coordinates>105.8054300,21.0392851,8.03 105.8054300,21.0394851,8.03 105.8056300,21.0394851,8.03 105.8056300,21.0392851,8.03 105.8054300,21.0392851,8.03</coordinates>
    </LineString>
  </Placemark>
  <Placemark>
    <name>KML File For FLY021.DAT Generated By PAC.</name>
    <description><![CDATA[Flight Path for KML File For FLY021.DAT Generated By PAC.]]></description>
    <styleUrl>#236850624</styleUrl>
    <LineString>
      <extrude>0</extrude>
      <tessellate>0</tessellate>
      <altitudeMode>absolute</altitudeMode>
      <coordinates>105.8055336,21.0393779,26.09 105.8055341,21.0393809,26.31 105.8055338,21.0393834,26.33 105.8055341,21.0393813,26.29 105.8055343,21.0393790,26.16 105.8055380,21.0393741,26.11 105.8055395,21.0393758,26.14 105.8055428,21.0393752,26.19 105.8055441,21.0393774,26.15 105.8055447,21.0393803,26.09 105.8055423,21.0393819,26.04 105.8055393,21.0393830,26.11 105.8055373,21.0393842,26.10 105.8055386,21.0393825,26.02 105.8055397,21.0393800,26.04 105.8055406,21.0393776,25.96 105.8055398,21.0393756,25.91 105.8055395,21.0393727,26.13 105.8055398,21.0393697,26.09 105.8055423,21.0393682,25.95 105.8055435,21.0393662,25.88 105.8055450,21.0393634,25.78 105.8055435,21.0393602,25.38 105.8055486,21.0393460,25.42 105.8055495,21.0393428,25.52 105.8055493,21.0393405,25.54 105.8055525,21.0393385,25.28 105.8055557,21.0393381,25.15 105.8055598,21.0393411,24.54 105.8055578,21.0393418,24.34 105.8055572,21.0393396,23.97 105.8055540,21.0393400,24.01 105.8055479,21.0393445,23.95 105.8055445,21.0393470,24.00 105.8055422,21.0393491,24.06 105.8055395,21.0393502,24.12 105.8055368,21.0393504,24.21 105.8055337,21.0393542,24.54 105.8055325,21.0393563,24.73 105.8055279,21.0393542,24.59 105.8055260,21.0393514,24.54 105.8055240,21.0393510,24.66 105.8055198,21.0393571,25.54 105.8055115,21.0393618,26.10 105.8055137,21.0393593,26.27 105.8055158,21.0393588,26.35 105.8055161,21.0393638,26.41 105.8055153,21.0393663,26.61 105.8055167,21.0393685,26.17 105.8055204,21.0393697,25.91 105.8055224,21.0393701,25.77 105.8055301,21.0393711,25.29 105.8055332,21.0393713,25.00 105.8055358,21.0393708,24.85 105.8055377,21.0393715,24.76 105.8055411,21.0393730,24.67 105.8055519,21.0393831,24.86 105.8055532,21.0393847,24.92 105.8055559,21.0393856,24.68 105.8055592,21.0393871,24.69 105.8055636,21.0393867,24.64 105.8055667,21.0393872,24.52 105.8055702,21.0393862,24.37 105.8055756,21.0393841,24.14 105.8055798,21.0393793,23.67 105.8055809,21.0393762,23.59 105.8055781,21.0393771,23.80 105.8055764,21.0393793,23.94 105.8055780,21.0393753,25.23 105.8055774,21.0393773,26.25 105.8055753,21.0393766,26.33 105.8055730,21.0393767,26.64 105.8055709,21.0393774,26.81 105.8055688,21.0393780,27.09 105.8055668,21.0393783,27.38 105.8055649,21.0393791,27.55 105.8055628,21.0393805,27.77 105.8055605,21.0393826,27.99 105.8055580,21.0393860,28.22 105.8055566,21.0393881,28.45 105.8055550,21.0393899,29.38 105.8055528,21.0393919,30.16 105.8055514,21.0393934,30.55 105.8055497,21.0393951,10.66 105.8055512,21.0393936,4.45 105.8055524,21.0393919,24.14 105.8055527,21.0393897,30.51 105.8055520,21.0393877,22.65 105.8055527,21.0393848,0.53 105.8055526,21.0393824,11.56 105.8055518,21.0393843,0.96 105.8055506,21.0393862,3.61 105.8055490,21.0393881,18.32 105.8055466,21.0393906,7.13 105.8055450,21.0393919,14.17 105.8055412,21.0393950,7.09 105.8055395,21.0393964,7.08 105.8055377,21.0393976,15.91 105.8055360,21.0393988,2.22 105.8055350,21.0394007,3.90 105.8055370,21.0393999,18.86 105.8055391,21.0393999,16.69 105.8055398,21.0394019,8.81 105.8055402,21.0394042,1.03 105.8055421,21.0394081,16.57 105.8055426,21.0394101,4.16 105.8055439,21.0394119,11.03 105.8055420,21.0394128,4.78 105.8055430,21.0394110,16.88 105.8055385,21.0394111,8.14 105.8055338,21.0394130,8.15 105.8055312,21.0394143,20.39 105.8055274,21.0394155,18.43 105.8055243,21.0394177,16.48 105.8055221,21.0394175,32.93 105.8055196,21.0394186,32.96 105.8055175,21.0394194,2.89 105.8055140,21.0394158,16.45 105.8055128,21.0394139,32.91 105.8055110,21.0394121,32.84 105.8055095,21.0394103,16.41 105.8055073,21.0394067,23.86 105.8055089,21.0394081,1.46 105.8055113,21.0394065,5.38 105.8055132,21.0394073,1.31 105.8055127,21.0394093,5.25 105.8055147,21.0394083,1.36 105.8055154,21.0394102,18.65 105.8055152,21.0394126,6.92 105.8055156,21.0394156,22.81 105.8055162,21.0394183,13.60 105.8055166,21.0394207,23.71 105.8055173,21.0394231,5.94 105.8055184,21.0394248,2.25 105.8055189,21.0394268,2.29 105.8055189,21.0394289,2.33 105.8055212,21.0394295,4.67 105.8055176,21.0394304,32.46 105.8055134,21.0394301,32.42 105.8055101,21.0394298,32.37 105.8054993,21.0394289,32.37 105.8054966,21.0394287,32.32 105.8054938,21.0394285,32.28 105.8054910,21.0394285,32.28 105.8054846,21.0394277,32.28 105.8054813,21.0394275,32.28 105.8054848,21.0394279,32.28 105.8054599,21.0394254,32.27 105.8054636,21.0394261,32.26 105.8054331,21.0394232,32.20 105.8054253,21.0394222,16.10 105.8054130,21.0394208,16.12 105.8054094,21.0394201,16.15 105.8054074,21.0394195,9.70 105.8054069,21.0394174,22.63 105.8054078,21.0394150,4.54 105.8054097,21.0394139,12.15 105.8054119,21.0394136,9.10 105.8054586,21.0394271,18.19 105.8054671,21.0394306,36.37 105.8055059,21.0394407,33.53 105.8055078,21.0394398,22.16 105.8055093,21.0394384,0.73 105.8055173,21.0394406,29.29 105.8055208,21.0394408,14.66 105.8055247,21.0394417,14.68 105.8055325,21.0394439,14.77 105.8055365,21.0394448,14.77 105.8055403,21.0394457,14.78 105.8055423,21.0394462,14.80 105.8055478,21.0394473,29.59 105.8055522,21.0394480,14.81 105.8055555,21.0394488,14.83 105.8055588,21.0394492,2.10 105.8055600,21.0394473,0.93 105.8055607,21.0394453,1.39 105.8055587,21.0394448,19.45 105.8055587,21.0394473,23.06 105.8055590,21.0394502,7.68 105.8055593,21.0394553,7.70 105.8055593,21.0394575,7.69 105.8055594,21.0394599,15.38 105.8055600,21.0394619,1.21 105.8055601,21.0394652,2.41 105.8055614,21.0394669,17.98 105.8055589,21.0394681,30.93 105.8055533,21.0394735,31.24 105.8055511,21.0394746,30.73 105.8055500,21.0394726,30.23 105.8055497,21.0394706,20.16 105.8055501,21.0394684,31.95 105.8055507,21.0394662,31.96 105.8055513,21.0394639,31.96 105.8055518,21.0394614,32.00 105.8055516,21.0394588,32.04 105.8055522,21.0394549,32.05 105.8055534,21.0394487,32.05 105.8055544,21.0394446,9.31 105.8055560,21.0394464,15.85 105.8055562,21.0394492,19.83 105.8055539,21.0394638,31.80 105.8055527,21.0394702,31.89 105.8055542,21.0394656,31.93 105.8055541,21.0394700,25.59 105.8055561,21.0394709,10.47 105.8055560,21.0394730,1.12 105.8055584,21.0394734,9.12 105.8055593,21.0394755,3.65 105.8055596,21.0394776,33.65 105.8055582,21.0394760,35.07 105.8055578,21.0394724,35.02 105.8055593,21.0394681,34.99 105.8055581,21.0394653,34.99 105.8055584,21.0394605,34.99 105.8055591,21.0394571,34.99 105.8055316,21.0394567,2.20 105.8055310,21.0394496,35.01 105.8055308,21.0394441,35.01 105.8055309,21.0394293,34.88 105.8055325,21.0394325,34.88 105.8055309,21.0394264,34.88 105.8055317,21.0394167,25.88 105.8055346,21.0394141,11.63 105.8055356,21.0394123,24.05 105.8055359,21.0394086,28.03 105.8055359,21.0394061,3.96 105.8055341,21.0394073,17.29 105.8055332,21.0394091,20.92 105.8055320,21.0394107,3.55 105.8055290,21.0394107,14.29 105.8055264,21.0394108,16.53 105.8055243,21.0394106,16.19 105.8055249,21.0394130,15.86 105.8055223,21.0394129,11.95 105.8055216,21.0394104,21.53 105.8055213,21.0394079,24.59 105.8055210,21.0394057,24.56 105.8055209,21.0394033,24.51 105.8055223,21.0394049,24.51 105.8055209,21.0394021,13.65 105.8055228,21.0394005,3.32 105.8055235,21.0393986,2.86 105.8055240,21.0393966,7.44 105.8055261,21.0393955,3.18 105.8055257,21.0393935,6.69 105.8055275,21.0393925,0.93 105.8055288,21.0393904,1.28 105.8055284,21.0393884,1.64 105.8055282,21.0393863,0.23 105.8055300,21.0393851,8.03</coordinates>
    </LineString>
  </Placemark>
</Document>
